FENGYUN 1C DEB          
1 31040U 99025BEJ 17345.61328366  .00000105  00000-0  76659-4 0  9991
2 31040  98.7658  17.7203 0064373 283.6735 203.3361 14.14373543553602
